{
  "type": "FeatureCollection",
  "features": [
    {
      "type": "Feature",
      "properties": {
        "norad_id": 36558,
        "name": "COSMOS 2251 DEB",
        "group": "cosmos-2251-debris",
        "lat": 38.434233209641285,
        "lon": -177.32999498178975,
        "alt_km": 712.6781024224829,
        "timestamp": "2025-12-04T19:33:59.996377+00:00",
        "meta_object_name": "COSMOS 2251 DEB",
        "meta_object_id": "1993-036BDU",
        "meta_epoch": "2025-12-04T06:10:59.118816",
        "meta_mean_motion": 14.55263226,
        "meta_eccentricity": 0.00131636,
        "meta_inclination": 74.0418,
        "meta_ra_of_asc_node": 170.6004,
        "meta_arg_of_pericenter": 258.9437,
        "meta_mean_anomaly": 101.0246,
        "meta_ephemeris_type": 0,
        "meta_classification_type": "U",
        "meta_norad_cat_id": 36558,
        "meta_element_set_no": 999,
        "meta_rev_at_epoch": 85145,
        "meta_bstar": 0.0017174664,
        "meta_mean_motion_dot": 7.427e-05,
        "meta_mean_motion_ddot": 0,
        "tle_line1": "1 36558U 93036BDU 25338.25762869  .00007427  00000+0  17175-2 0  9996",
        "tle_line2": "2 36558  74.0418 170.6004 0013163 258.9437 101.0246 14.55263226851456"
      },
      "geometry": {
        "type": "Point",
        "coordinates": [
          -177.32999498178975,
          38.434233209641285
        ]
      }
    },
    {
      "type": "Feature",
      "properties": {
        "norad_id": 36559,
        "name": "COSMOS 2251 DEB",
        "group": "cosmos-2251-debris",
        "lat": 26.65562851241819,
        "lon": -164.85675283741702,
        "alt_km": 915.8793299824802,
        "timestamp": "2025-12-04T19:33:59.996386+00:00",
        "meta_object_name": "COSMOS 2251 DEB",
        "meta_object_id": "1993-036BDV",
        "meta_epoch": "2025-12-03T03:17:00.548160",
        "meta_mean_motion": 13.95062123,
        "meta_eccentricity": 0.02603187,
        "meta_inclination": 74.1298,
        "meta_ra_of_asc_node": 26.2197,
        "meta_arg_of_pericenter": 61.9669,
        "meta_mean_anomaly": 300.7529,
        "meta_ephemeris_type": 0,
        "meta_classification_type": "U",
        "meta_norad_cat_id": 36559,
        "meta_element_set_no": 999,
        "meta_rev_at_epoch": 80960,
        "meta_bstar": 0.0032733881,
        "meta_mean_motion_dot": 5.835e-05,
        "meta_mean_motion_ddot": 0,
        "tle_line1": "1 36559U 93036BDV 25337.13681190  .00005835  00000+0  32734-2 0  9999",
        "tle_line2": "2 36559  74.1298  26.2197 0260318  61.9669 300.7529 13.95062123809606"
      },
      "geometry": {
        "type": "Point",
        "coordinates": [
          -164.85675283741702,
          26.65562851241819
        ]
      }
    },
    {
      "type": "Feature",
      "properties": {
        "norad_id": 36614,
        "name": "COSMOS 2251 DEB",
        "group": "cosmos-2251-debris",
        "lat": -72.08255132434958,
        "lon": 127.32599956495531,
        "alt_km": 688.6481715647806,
        "timestamp": "2025-12-04T19:33:59.996395+00:00",
        "meta_object_name": "COSMOS 2251 DEB",
        "meta_object_id": "1993-036BEC",
        "meta_epoch": "2025-12-03T20:55:07.059072",
        "meta_mean_motion": 14.60089968,
        "meta_eccentricity": 0.0016551,
        "meta_inclination": 74.0216,
        "meta_ra_of_asc_node": 191.525,
        "meta_arg_of_pericenter": 261.9036,
        "meta_mean_anomaly": 98.0252,
        "meta_ephemeris_type": 0,
        "meta_classification_type": "U",
        "meta_norad_cat_id": 36614,
        "meta_element_set_no": 999,
        "meta_rev_at_epoch": 65483,
        "meta_bstar": 0.0023551,
        "meta_mean_motion_dot": 0.00011335,
        "meta_mean_motion_ddot": 0,
        "tle_line1": "1 36614U 93036BEC 25337.87160948  .00011335  00000+0  23551-2 0  9994",
        "tle_line2": "2 36614  74.0216 191.5250 0016551 261.9036  98.0252 14.60089968654833"
      },
      "geometry": {
        "type": "Point",
        "coordinates": [
          127.32599956495531,
          -72.08255132434958
        ]
      }
    },
    {
      "type": "Feature",
      "properties": {
        "norad_id": 36622,
        "name": "COSMOS 2251 DEB",
        "group": "cosmos-2251-debris",
        "lat": -62.6499641685095,
        "lon": 14.675384228511138,
        "alt_km": 617.6505395726317,
        "timestamp": "2025-12-04T19:33:59.996404+00:00",
        "meta_object_name": "COSMOS 2251 DEB",
        "meta_object_id": "1993-036BEL",
        "meta_epoch": "2025-12-03T05:01:52.297248",
        "meta_mean_motion": 14.76062801,
        "meta_eccentricity": 0.0068651,
        "meta_inclination": 74.0123,
        "meta_ra_of_asc_node": 164.1599,
        "meta_arg_of_pericenter": 301.4502,
        "meta_mean_anomaly": 57.9972,
        "meta_ephemeris_type": 0,
        "meta_classification_type": "U",
        "meta_norad_cat_id": 36622,
        "meta_element_set_no": 999,
        "meta_rev_at_epoch": 66609,
        "meta_bstar": 0.00094596509,
        "meta_mean_motion_dot": 6.75e-05,
        "meta_mean_motion_ddot": 0,
        "tle_line1": "1 36622U 93036BEL 25337.20963307  .00006750  00000+0  94597-3 0  9994",
        "tle_line2": "2 36622  74.0123 164.1599 0068651 301.4502  57.9972 14.76062801666095"
      },
      "geometry": {
        "type": "Point",
        "coordinates": [
          14.675384228511138,
          -62.6499641685095
        ]
      }
    },
    {
      "type": "Feature",
      "properties": {
        "norad_id": 36632,
        "name": "COSMOS 2251 DEB",
        "group": "cosmos-2251-debris",
        "lat": -73.98649639946971,
        "lon": -141.37781367142108,
        "alt_km": 774.007521934418,
        "timestamp": "2025-12-04T19:33:59.996413+00:00",
        "meta_object_name": "COSMOS 2251 DEB",
        "meta_object_id": "1993-036BEW",
        "meta_epoch": "2025-12-02T14:44:27.820896",
        "meta_mean_motion": 14.43079898,
        "meta_eccentricity": 0.00315122,
        "meta_inclination": 74.0016,
        "meta_ra_of_asc_node": 311.214,
        "meta_arg_of_pericenter": 61.7706,
        "meta_mean_anomaly": 298.6626,
        "meta_ephemeris_type": 0,
        "meta_classification_type": "U",
        "meta_norad_cat_id": 36632,
        "meta_element_set_no": 999,
        "meta_rev_at_epoch": 65069,
        "meta_bstar": 0.0010615143,
        "meta_mean_motion_dot": 3.557e-05,
        "meta_mean_motion_ddot": 0,
        "tle_line1": "1 36632U 93036BEW 25336.61421089  .00003557  00000+0  10615-2 0  9995",
        "tle_line2": "2 36632  74.0016 311.2140 0031512  61.7706 298.6626 14.43079898650699"
      },
      "geometry": {
        "type": "Point",
        "coordinates": [
          -141.37781367142108,
          -73.98649639946971
        ]
      }
    },
    {
      "type": "Feature",
      "properties": {
        "norad_id": 37084,
        "name": "COSMOS 2251 DEB",
        "group": "cosmos-2251-debris",
        "lat": 61.70941638210747,
        "lon": -150.25864645159112,
        "alt_km": 624.3037016147482,
        "timestamp": "2025-12-04T19:33:59.996422+00:00",
        "meta_object_name": "COSMOS 2251 DEB",
        "meta_object_id": "1993-036BFE",
        "meta_epoch": "2025-12-01T06:28:31.045728",
        "meta_mean_motion": 15.00732489,
        "meta_eccentricity": 0.0098181,
        "meta_inclination": 74.0271,
        "meta_ra_of_asc_node": 184.8055,
        "meta_arg_of_pericenter": 268.0487,
        "meta_mean_anomaly": 90.9454,
        "meta_ephemeris_type": 0,
        "meta_classification_type": "U",
        "meta_norad_cat_id": 37084,
        "meta_element_set_no": 999,
        "meta_rev_at_epoch": 66095,
        "meta_bstar": 0.00060454,
        "meta_mean_motion_dot": 8.458e-05,
        "meta_mean_motion_ddot": 0,
        "tle_line1": "1 37084U 93036BFE 25335.26980377  .00008458  00000+0  60454-3 0  9999",
        "tle_line2": "2 37084  74.0271 184.8055 0098181 268.0487  90.9454 15.00732489660954"
      },
      "geometry": {
        "type": "Point",
        "coordinates": [
          -150.25864645159112,
          61.70941638210747
        ]
      }
    },
    {
      "type": "Feature",
      "properties": {
        "norad_id": 37085,
        "name": "COSMOS 2251 DEB",
        "group": "cosmos-2251-debris",
        "lat": 60.26179664802547,
        "lon": -96.46368102628344,
        "alt_km": 426.17246014462035,
        "timestamp": "2025-12-04T19:33:59.996431+00:00",
        "meta_object_name": "COSMOS 2251 DEB",
        "meta_object_id": "1993-036BFF",
        "meta_epoch": "2025-12-02T23:36:37.668384",
        "meta_mean_motion": 15.39020756,
        "meta_eccentricity": 0.0022856,
        "meta_inclination": 73.9503,
        "meta_ra_of_asc_node": 237.2473,
        "meta_arg_of_pericenter": 76.375,
        "meta_mean_anomaly": 284,
        "meta_ephemeris_type": 0,
        "meta_classification_type": "U",
        "meta_norad_cat_id": 37085,
        "meta_element_set_no": 999,
        "meta_rev_at_epoch": 66987,
        "meta_bstar": 0.0028642077,
        "meta_mean_motion_dot": 0.00113322,
        "meta_mean_motion_ddot": 0,
        "tle_line1": "1 37085U 93036BFF 25336.98376931  .00113322  00000+0  28642-2 0  9994",
        "tle_line2": "2 37085  73.9503 237.2473 0022856  76.3750 284.0000 15.39020756669879"
      },
      "geometry": {
        "type": "Point",
        "coordinates": [
          -96.46368102628344,
          60.26179664802547
        ]
      }
    }
  ]
}